TDRS 3                  
1 19548U 88091B   17295.13779556 -.00000307  00000-0  00000+0 0  9990
2 19548  14.4482   6.6629 0035836 306.3373  65.0774  1.00278335 93685
HST                     
1 20580U 90037B   17295.19198115  .00000720  00000-0  33383-4 0  9996
2 20580  28.4694 248.2328 0002960  99.8904 220.4406 15.08894203309487
TDRS 5                  
1 21639U 91054B   17295.49411663  .00000082  00000-0  00000+0 0  9997
2 21639  14.4513  20.0678 0019355 340.0706  41.2744  1.00278642 96026
TDRS 6                  
1 22314U 93003B   17295.05760562 -.00000298  00000-0  00000+0 0  9991
2 22314  13.9916  23.0297 0006186 275.6869  66.8165  1.00278197 90680
TDRS 7                  
1 23613U 95035B   17295.07312503 -.00000207  00000-0  00000+0 0  9991
2 23613  15.0165  13.7699 0025679 356.8576 131.1198  1.00276973 81467
ISS (ZARYA)             
1 25544U 98067A   17295.56400318  .00002986  00000-0  52166-4 0  9990
2 25544  51.6403 123.3328 0005268  48.5918  57.1864 15.54229415 81568
LANDSAT 7               
1 25682U 99020A   17295.30180333  .00000187  00000-0  51616-4 0  9997
2 25682  98.1993   4.6170 0000888  69.3455 290.7825 14.57112154985105
TERRA                   
1 25994U 99068A   17295.31226342 -.00001386  00000-0 -29759-3 0  9993
2 25994  98.2073   8.4811 0001288  64.4381 295.6952 14.57112419949181
TDRS 8                  
1 26388U 00034A   17293.82254390 -.00000237  00000-0  00000-0 0  9992
2 26388   7.6989  54.7585 0008737 214.9101 145.0062  1.00266793 63488
EO-1                    
1 26619U 00075A   17295.48406117 -.00001402  00000-0 -25660-3 0  9992
2 26619  97.8260 318.5579 0010893  65.8678 294.3606 14.64406837902168
TIMED                   
1 26998U 01055B   17294.88822820  .00000178  00000-0  23480-4 0  9993
2 26998  74.0724  63.0023 0000975 329.3688  30.7435 14.87949247860274
TDRS 9                  
1 27389U 02011A   17294.77759819 -.00000107  00000-0  00000+0 0  9997
2 27389   5.5045  77.5105 0018803 233.0312 347.8816  1.00271851 58745
AQUA                    
1 27424U 02022A   17294.92875392  .00000124  00000-0  37702-4 0  9993
2 27424  98.2148 234.3829 0002716  80.2930 328.9500 14.57107078822685
TDRS 10                 
1 27566U 02055A   17294.56092782  .00000070  00000-0  00000+0 0  9996
2 27566   5.2492  57.8250 0009589 209.7127 150.2106  1.00269252 54535
SORCE                   
1 27651U 03004A   17295.16501151  .00000229  00000-0  38345-4 0  9992
2 27651  39.9966 334.0500 0022830  46.5727 313.6957 14.88751910799728
AURA                    
1 28376U 04026A   17294.92496858  .00000131  00000-0  39078-4 0  9998
2 28376  98.2148 236.5431 0001906  70.6844 289.4561 14.57113739705737
SWIFT                   
1 28485U 04047A   17295.41749289  .00001222  00000-0  54623-4 0  9991
2 28485  20.5576 325.1900 0011533  46.6759 313.4635 15.03899294707384
THEMIS A                
1 30580U 07004A   17294.60848816 -.00000209  00000-0  00000+0 0  9992
2 30580   7.7708 178.4422 8335889 157.3387  14.5457  0.87741922 38189
THEMIS D                
1 30797U 07004D   17292.28987696 -.00000232  00000-0  00000-0 0  9991
2 30797   4.8661 138.1537 8070574 213.9948  48.9591  1.01458343 14424
THEMIS E                
1 30798U 07004E   17294.66790869 -.00000329  00000-0  00000+0 0  9996
2 30798   5.1828 165.7886 8312917 181.3313  13.9631  0.87681239 38665
AIM                     
1 31304U 07015A   17294.67690055  .00001367  00000-0  83033-4 0  9993
2 31304  98.0026 119.6724 0006459  71.0615 289.1313 15.12331265574059
FGRST (GLAST)           
1 33053U 08029A   17294.94564764  .00000663  00000-0  21445-4 0  9996
2 33053  25.5822 221.0485 0012185 309.5560  50.3898 15.10982061516498
WISE                    
1 36119U 09071A   17295.17781340  .00001324  00000-0  50275-4 0  9995
2 36119  97.4407 322.9590 0001919 185.1409 174.9811 15.28607730435676
TDRS 11                 
1 39070U 13004A   17295.30149882  .00000078  00000-0  00000+0 0  9990
2 39070   5.2298 328.5689 0010320 287.2916  72.3939  1.00271753 17309
TDRS 12                 
1 39504U 14004A   17294.96208723 -.00000287  00000-0  00000+0 0  9997
2 39504   5.8422 335.9672 0003017 298.8109  60.9907  1.00279792 13762
GPM-CORE                
1 39574U 14009C   17294.90155007  .00006580  00000-0  99165-4 0  9995
2 39574  65.0095 208.9526 0010982 285.4139  74.5793 15.55658274207225
MMS 1                   
1 40482U 15011A   17291.01041667 -.00000265  00000-0  00000+0 0  9994
2 40482  22.1162 308.9046 9011925 159.7091 101.3168  0.35514944  8095
MMS 2                   
1 40483U 15011B   17291.01041667 -.00000265  00000-0  00000+0 0  9995
2 40483  22.1152 308.9018 9010279 159.7028 101.3423  0.35514888  8085
MMS 3                   
1 40484U 15011C   17291.01041667 -.00000265  00000-0  00000+0 0  9996
2 40484  22.1223 308.9264 9010654 159.6865 101.3229  0.35514880  8089
MMS 4                   
1 40485U 15011D   17291.01041667 -.00000265  00000-0  00000+0 0  9997
2 40485  22.1150 308.9070 9010029 159.7169 101.2975  0.35514846  8076
